FLOCK 4G-8              
1 62613U 25009E   26116.84981196  .00012148  00000+0  43710-3 0  9999
2 62613  97.4009 199.1098 0005649 130.5153 229.6579 15.28736337 71078
FLOCK 4G-13             
1 62621U 25009N   26116.79763345  .00060820  00000+0  16068-2 0  9991
2 62621  97.3971 199.4012 0005681 147.1515 213.0084 15.38206923 71088
FLOCK 4G-9              
1 62622U 25009P   26116.78636810  .00011604  00000+0  43816-3 0  9995
2 62622  97.3962 198.1502 0005956 136.1585 224.0127 15.27153289 71016
FLOCK 4G-7              
1 62624U 25009R   26116.67981455  .00012844  00000+0  46923-3 0  9992
2 62624  97.3949 198.3324 0004205 129.9052 230.2558 15.28228165 71038
FLOCK 4G-12             
1 62625U 25009S   26116.79999570  .00012392  00000+0  45461-3 0  9997
2 62625  97.4023 198.9332 0005725 127.5311 232.6449 15.28091688 71053
FLOCK 4G-11             
1 62629U 25009W   26116.72707270  .00012829  00000+0  46791-3 0  9990
2 62629  97.3924 198.5044 0004210 131.1923 228.9680 15.28282400 71059
PELICAN-2               
1 62631U 25009Y   26116.79915954  .00053621  00000+0  13165-2 0  9993
2 62631  97.3562 207.6068 0004001  95.1134 265.0569 15.40495951 71643
FLOCK 4G-26             
1 62633U 25009AA  26116.81200257  .00011038  00000+0  40219-3 0  9998
2 62633  97.4020 199.0786 0004986 121.2033 238.9696 15.28348189 71069
FLOCK 4G-28             
1 62634U 25009AB  26116.79755976  .00009439  00000+0  28935-3 0  9992
2 62634  97.4023 201.1879 0003412 117.8493 242.3096 15.33990919 71204
FLOCK 4G-20             
1 62636U 25009AD  26116.71827330  .00099738  00000+0  21578-2 0  9996
2 62636  97.3889 199.9876 0004148 169.5267 190.6069 15.44095817 71150
FLOCK 4G-24             
1 62637U 25009AE  26116.78071959  .00013346  00000+0  47755-3 0  9999
2 62637  97.4023 199.2919 0004586 111.4945 248.6784 15.28898338 71078
FLOCK 4G-3              
1 62639U 25009AG  26116.74555410  .00011743  00000+0  42835-3 0  9999
2 62639  97.4028 199.0297 0004497 117.8725 242.2971 15.28298152 71042
FLOCK 4G-27             
1 62641U 25009AJ  26116.76300600  .00014600  00000+0  53213-3 0  9990
2 62641  97.3940 198.4959 0003753 121.2477 238.9131 15.28276032 71045
FLOCK 4G-29             
1 62642U 25009AK  26116.95003284  .00011016  00000+0  40082-3 0  9998
2 62642  97.4024 199.1903 0004498 114.4137 245.7572 15.28397626 71072
FLOCK 4G-22             
1 62645U 25009AN  26116.76497237  .00012354  00000+0  45102-3 0  9999
2 62645  97.4011 199.0711 0003987 114.9958 245.1696 15.28261423 71060
FLOCK 4G-25             
1 62646U 25009AP  26116.94532898  .00009747  00000+0  35455-3 0  9995
2 62646  97.4016 199.2985 0003533 120.6991 239.4597 15.28446253 71094
