[{"OBJECT_NAME":"FLOCK 4G-8","OBJECT_ID":"2025-009E","EPOCH":"2026-04-26T20:23:43.753344","MEAN_MOTION":15.28736337,"ECCENTRICITY":0.00056493,"INCLINATION":97.4009,"RA_OF_ASC_NODE":199.1098,"ARG_OF_PERICENTER":130.5153,"MEAN_ANOMALY":229.6579,"EPHEMERIS_TYPE":0,"CLASSIFICATION_TYPE":"U","NORAD_CAT_ID":62613,"ELEMENT_SET_NO":999,"REV_AT_EPOCH":7107,"BSTAR":0.00043710135,"MEAN_MOTION_DOT":0.00012148,"MEAN_MOTION_DDOT":0},{"OBJECT_NAME":"FLOCK 4G-13","OBJECT_ID":"2025-009N","EPOCH":"2026-04-26T19:08:35.530080","MEAN_MOTION":15.38206923,"ECCENTRICITY":0.00056816,"INCLINATION":97.3971,"RA_OF_ASC_NODE":199.4012,"ARG_OF_PERICENTER":147.1515,"MEAN_ANOMALY":213.0084,"EPHEMERIS_TYPE":0,"CLASSIFICATION_TYPE":"U","NORAD_CAT_ID":62621,"ELEMENT_SET_NO":999,"REV_AT_EPOCH":7108,"BSTAR":0.0016068425,"MEAN_MOTION_DOT":0.0006082,"MEAN_MOTION_DDOT":0},{"OBJECT_NAME":"FLOCK 4G-9","OBJECT_ID":"2025-009P","EPOCH":"2026-04-26T18:52:22.203840","MEAN_MOTION":15.27153289,"ECCENTRICITY":0.0005956,"INCLINATION":97.3962,"RA_OF_ASC_NODE":198.1502,"ARG_OF_PERICENTER":136.1585,"MEAN_ANOMALY":224.0127,"EPHEMERIS_TYPE":0,"CLASSIFICATION_TYPE":"U","NORAD_CAT_ID":62622,"ELEMENT_SET_NO":999,"REV_AT_EPOCH":7101,"BSTAR":0.00043816105,"MEAN_MOTION_DOT":0.00011604,"MEAN_MOTION_DDOT":0},{"OBJECT_NAME":"FLOCK 4G-7","OBJECT_ID":"2025-009R","EPOCH":"2026-04-26T16:18:55.977120","MEAN_MOTION":15.28228165,"ECCENTRICITY":0.00042055,"INCLINATION":97.3949,"RA_OF_ASC_NODE":198.3324,"ARG_OF_PERICENTER":129.9052,"MEAN_ANOMALY":230.2558,"EPHEMERIS_TYPE":0,"CLASSIFICATION_TYPE":"U","NORAD_CAT_ID":62624,"ELEMENT_SET_NO":999,"REV_AT_EPOCH":7103,"BSTAR":0.0004692333,"MEAN_MOTION_DOT":0.00012844,"MEAN_MOTION_DDOT":0},{"OBJECT_NAME":"FLOCK 4G-12","OBJECT_ID":"2025-009S","EPOCH":"2026-04-26T19:11:59.628480","MEAN_MOTION":15.28091688,"ECCENTRICITY":0.00057253,"INCLINATION":97.4023,"RA_OF_ASC_NODE":198.9332,"ARG_OF_PERICENTER":127.5311,"MEAN_ANOMALY":232.6449,"EPHEMERIS_TYPE":0,"CLASSIFICATION_TYPE":"U","NORAD_CAT_ID":62625,"ELEMENT_SET_NO":999,"REV_AT_EPOCH":7105,"BSTAR":0.000454606,"MEAN_MOTION_DOT":0.00012392,"MEAN_MOTION_DDOT":0},{"OBJECT_NAME":"FLOCK 4G-11","OBJECT_ID":"2025-009W","EPOCH":"2026-04-26T17:26:59.081280","MEAN_MOTION":15.282824,"ECCENTRICITY":0.00042108,"INCLINATION":97.3924,"RA_OF_ASC_NODE":198.5044,"ARG_OF_PERICENTER":131.1923,"MEAN_ANOMALY":228.968,"EPHEMERIS_TYPE":0,"CLASSIFICATION_TYPE":"U","NORAD_CAT_ID":62629,"ELEMENT_SET_NO":999,"REV_AT_EPOCH":7105,"BSTAR":0.00046791268,"MEAN_MOTION_DOT":0.00012829,"MEAN_MOTION_DDOT":0},{"OBJECT_NAME":"PELICAN-2","OBJECT_ID":"2025-009Y","EPOCH":"2026-04-26T19:10:47.384256","MEAN_MOTION":15.40495951,"ECCENTRICITY":0.00040015,"INCLINATION":97.3562,"RA_OF_ASC_NODE":207.6068,"ARG_OF_PERICENTER":95.1134,"MEAN_ANOMALY":265.0569,"EPHEMERIS_TYPE":0,"CLASSIFICATION_TYPE":"U","NORAD_CAT_ID":62631,"ELEMENT_SET_NO":999,"REV_AT_EPOCH":7164,"BSTAR":0.0013164977,"MEAN_MOTION_DOT":0.00053621,"MEAN_MOTION_DDOT":0},{"OBJECT_NAME":"FLOCK 4G-26","OBJECT_ID":"2025-009AA","EPOCH":"2026-04-26T19:29:17.022048","MEAN_MOTION":15.28348189,"ECCENTRICITY":0.00049866,"INCLINATION":97.402,"RA_OF_ASC_NODE":199.0786,"ARG_OF_PERICENTER":121.2033,"MEAN_ANOMALY":238.9696,"EPHEMERIS_TYPE":0,"CLASSIFICATION_TYPE":"U","NORAD_CAT_ID":62633,"ELEMENT_SET_NO":999,"REV_AT_EPOCH":7106,"BSTAR":0.00040219229,"MEAN_MOTION_DOT":0.00011038,"MEAN_MOTION_DDOT":0},{"OBJECT_NAME":"FLOCK 4G-28","OBJECT_ID":"2025-009AB","EPOCH":"2026-04-26T19:08:29.163264","MEAN_MOTION":15.33990919,"ECCENTRICITY":0.00034129,"INCLINATION":97.4023,"RA_OF_ASC_NODE":201.1879,"ARG_OF_PERICENTER":117.8493,"MEAN_ANOMALY":242.3096,"EPHEMERIS_TYPE":0,"CLASSIFICATION_TYPE":"U","NORAD_CAT_ID":62634,"ELEMENT_SET_NO":999,"REV_AT_EPOCH":7120,"BSTAR":0.00028935169,"MEAN_MOTION_DOT":9.439e-5,"MEAN_MOTION_DDOT":0},{"OBJECT_NAME":"FLOCK 4G-20","OBJECT_ID":"2025-009AD","EPOCH":"2026-04-26T17:14:18.813120","MEAN_MOTION":15.44095817,"ECCENTRICITY":0.00041488,"INCLINATION":97.3889,"RA_OF_ASC_NODE":199.9876,"ARG_OF_PERICENTER":169.5267,"MEAN_ANOMALY":190.6069,"EPHEMERIS_TYPE":0,"CLASSIFICATION_TYPE":"U","NORAD_CAT_ID":62636,"ELEMENT_SET_NO":999,"REV_AT_EPOCH":7115,"BSTAR":0.0021577971,"MEAN_MOTION_DOT":0.00099738,"MEAN_MOTION_DDOT":0},{"OBJECT_NAME":"FLOCK 4G-24","OBJECT_ID":"2025-009AE","EPOCH":"2026-04-26T18:44:14.172576","MEAN_MOTION":15.28898338,"ECCENTRICITY":0.0004586,"INCLINATION":97.4023,"RA_OF_ASC_NODE":199.2919,"ARG_OF_PERICENTER":111.4945,"MEAN_ANOMALY":248.6784,"EPHEMERIS_TYPE":0,"CLASSIFICATION_TYPE":"U","NORAD_CAT_ID":62637,"ELEMENT_SET_NO":999,"REV_AT_EPOCH":7107,"BSTAR":0.00047754692,"MEAN_MOTION_DOT":0.00013346,"MEAN_MOTION_DDOT":0},{"OBJECT_NAME":"FLOCK 4G-3","OBJECT_ID":"2025-009AG","EPOCH":"2026-04-26T17:53:35.874240","MEAN_MOTION":15.28298152,"ECCENTRICITY":0.00044973,"INCLINATION":97.4028,"RA_OF_ASC_NODE":199.0297,"ARG_OF_PERICENTER":117.8725,"MEAN_ANOMALY":242.2971,"EPHEMERIS_TYPE":0,"CLASSIFICATION_TYPE":"U","NORAD_CAT_ID":62639,"ELEMENT_SET_NO":999,"REV_AT_EPOCH":7104,"BSTAR":0.00042835452,"MEAN_MOTION_DOT":0.00011743,"MEAN_MOTION_DDOT":0},{"OBJECT_NAME":"FLOCK 4G-27","OBJECT_ID":"2025-009AJ","EPOCH":"2026-04-26T18:18:43.718400","MEAN_MOTION":15.28276032,"ECCENTRICITY":0.00037537,"INCLINATION":97.394,"RA_OF_ASC_NODE":198.4959,"ARG_OF_PERICENTER":121.2477,"MEAN_ANOMALY":238.9131,"EPHEMERIS_TYPE":0,"CLASSIFICATION_TYPE":"U","NORAD_CAT_ID":62641,"ELEMENT_SET_NO":999,"REV_AT_EPOCH":7104,"BSTAR":0.00053212788,"MEAN_MOTION_DOT":0.000146,"MEAN_MOTION_DDOT":0},{"OBJECT_NAME":"FLOCK 4G-29","OBJECT_ID":"2025-009AK","EPOCH":"2026-04-26T22:48:02.837376","MEAN_MOTION":15.28397626,"ECCENTRICITY":0.00044985,"INCLINATION":97.4024,"RA_OF_ASC_NODE":199.1903,"ARG_OF_PERICENTER":114.4137,"MEAN_ANOMALY":245.7572,"EPHEMERIS_TYPE":0,"CLASSIFICATION_TYPE":"U","NORAD_CAT_ID":62642,"ELEMENT_SET_NO":999,"REV_AT_EPOCH":7107,"BSTAR":0.00040082442,"MEAN_MOTION_DOT":0.00011016,"MEAN_MOTION_DDOT":0},{"OBJECT_NAME":"FLOCK 4G-22","OBJECT_ID":"2025-009AN","EPOCH":"2026-04-26T18:21:33.612768","MEAN_MOTION":15.28261423,"ECCENTRICITY":0.00039876,"INCLINATION":97.4011,"RA_OF_ASC_NODE":199.0711,"ARG_OF_PERICENTER":114.9958,"MEAN_ANOMALY":245.1696,"EPHEMERIS_TYPE":0,"CLASSIFICATION_TYPE":"U","NORAD_CAT_ID":62645,"ELEMENT_SET_NO":999,"REV_AT_EPOCH":7106,"BSTAR":0.00045102046,"MEAN_MOTION_DOT":0.00012354,"MEAN_MOTION_DDOT":0},{"OBJECT_NAME":"FLOCK 4G-25","OBJECT_ID":"2025-009AP","EPOCH":"2026-04-26T22:41:16.423872","MEAN_MOTION":15.28446253,"ECCENTRICITY":0.00035338,"INCLINATION":97.4016,"RA_OF_ASC_NODE":199.2985,"ARG_OF_PERICENTER":120.6991,"MEAN_ANOMALY":239.4597,"EPHEMERIS_TYPE":0,"CLASSIFICATION_TYPE":"U","NORAD_CAT_ID":62646,"ELEMENT_SET_NO":999,"REV_AT_EPOCH":7109,"BSTAR":0.00035454832,"MEAN_MOTION_DOT":9.747e-5,"MEAN_MOTION_DDOT":0}]
